start=new Date('2022-10-31T00:00:00.000Z').valueOf();
sats=[{"NORAD_CAT_ID":"48397","APOAPSIS":"548.064","SITE":"AFETR","MEAN_MOTION":"15.06395322","ELEMENT_SET_NO":"999","TIME_SYSTEM":"UTC","LAUNCH_DATE":"2021-05-04","REV_AT_EPOCH":"8373","OBJECT_NAME":"STARLINK-2590","OBJECT_ID":"2021-038AW","DECAY_DATE":null,"BSTAR":"-0.00007018300000","SEMIMAJOR_AXIS":"6925.363","EPOCH":"2022-10-30T15:56:36.989664","OBJECT_TYPE":"PAYLOAD","CLASSIFICATION_TYPE":"U","EPHEMERIS_TYPE":"0","ARG_OF_PERICENTER":"112.5941","MEAN_ELEMENT_THEORY":"SGP4","INCLINATION":"53.0546","PERIOD":"95.592","MEAN_ANOMALY":"247.5176","CENTER_NAME":"EARTH","REF_FRAME":"TEME","ECCENTRICITY":"0.00012070","RCS_SIZE":"LARGE","PERIAPSIS":"546.392","MEAN_MOTION_DOT":"-0.00001326","MEAN_MOTION_DDOT":"0.0000000000000","RA_OF_ASC_NODE":"85.4685","FILE":"3637924","TLE_LINE2":"2 48397  53.0546  85.4685 0001207 112.5941 247.5176 15.06395322 83734","COUNTRY_CODE":"US","GP_ID":"216528323","TLE_LINE1":"1 48397U 21038AW  22303.66431701 -.00001326  00000-0 -70183-4 0  9990"},{"FILE":"3637924","GP_ID":"216528567","COUNTRY_CODE":"US","TLE_LINE2":"2 48398  53.0561  84.8847 0001563 114.7264 245.3887 15.06400069 83754","TLE_LINE1":"1 48398U 21038AX  22303.79332101  .00000886  00000-0  78392-4 0  9997","RA_OF_ASC_NODE":"84.8847","REF_FRAME":"TEME","ECCENTRICITY":"0.00015630","MEAN_MOTION_DDOT":"0.0000000000000","MEAN_MOTION_DOT":"0.00000886","RCS_SIZE":"LARGE","PERIAPSIS":"546.131","ARG_OF_PERICENTER":"114.7264","EPHEMERIS_TYPE":"0","MEAN_ELEMENT_THEORY":"SGP4","PERIOD":"95.592","INCLINATION":"53.0561","MEAN_ANOMALY":"245.3887","CENTER_NAME":"EARTH","SEMIMAJOR_AXIS":"6925.348","EPOCH":"2022-10-30T19:02:22.935264","CLASSIFICATION_TYPE":"U","OBJECT_TYPE":"PAYLOAD","OBJECT_ID":"2021-038AX","DECAY_DATE":null,"BSTAR":"0.00007839200000","SITE":"AFETR","MEAN_MOTION":"15.06400069","ELEMENT_SET_NO":"999","LAUNCH_DATE":"2021-05-04","TIME_SYSTEM":"UTC","REV_AT_EPOCH":"8375","OBJECT_NAME":"STARLINK-2588","NORAD_CAT_ID":"48398","APOAPSIS":"548.296"},{"GP_ID":"216527327","COUNTRY_CODE":"US","TLE_LINE2":"2 48399  53.0544  84.8971 0001370 103.9196 256.1945 15.06396720 83746","FILE":"3637924","TLE_LINE1":"1 48399U 21038AY  22303.78963920  .00000388  00000-0  44967-4 0  9994","RA_OF_ASC_NODE":"84.8971","REF_FRAME":"TEME","MEAN_MOTION_DOT":"0.00000388","MEAN_MOTION_DDOT":"0.0000000000000","PERIAPSIS":"546.275","RCS_SIZE":"LARGE","ECCENTRICITY":"0.00013700","MEAN_ELEMENT_THEORY":"SGP4","ARG_OF_PERICENTER":"103.9196","EPHEMERIS_TYPE":"0","CENTER_NAME":"EARTH","PERIOD":"95.592","MEAN_ANOMALY":"256.1945","INCLINATION":"53.0544","EPOCH":"2022-10-30T18:57:04.826880","SEMIMAJOR_AXIS":"6925.359","CLASSIFICATION_TYPE":"U","OBJECT_TYPE":"PAYLOAD","DECAY_DATE":null,"OBJECT_ID":"2021-038AY","BSTAR":"0.00004496700000","LAUNCH_DATE":"2021-05-04","TIME_SYSTEM":"UTC","MEAN_MOTION":"15.06396720","SITE":"AFETR","ELEMENT_SET_NO":"999","OBJECT_NAME":"STARLINK-2587","REV_AT_EPOCH":"8374","NORAD_CAT_ID":"48399","APOAPSIS":"548.172"},{"REF_FRAME":"TEME","ECCENTRICITY":"0.00014230","RCS_SIZE":"LARGE","PERIAPSIS":"546.213","MEAN_MOTION_DDOT":"0.0000000000000","MEAN_MOTION_DOT":"0.00000970","EPHEMERIS_TYPE":"0","ARG_OF_PERICENTER":"100.5123","MEAN_ELEMENT_THEORY":"SGP4","MEAN_ANOMALY":"259.6027","PERIOD":"95.592","INCLINATION":"53.0533","CENTER_NAME":"EARTH","FILE":"3637924","COUNTRY_CODE":"US","TLE_LINE2":"2 48400  53.0533  84.9202 0001423 100.5123 259.6027 15.06405064 82534","GP_ID":"216528077","TLE_LINE1":"1 48400U 21038AZ  22303.78595253  .00000970  00000-0  83976-4 0  9997","RA_OF_ASC_NODE":"84.9202","ELEMENT_SET_NO":"999","SITE":"AFETR","MEAN_MOTION":"15.06405064","TIME_SYSTEM":"UTC","LAUNCH_DATE":"2021-05-04","REV_AT_EPOCH":"8253","OBJECT_NAME":"STARLINK-2576","NORAD_CAT_ID":"48400","APOAPSIS":"548.184","SEMIMAJOR_AXIS":"6925.333","EPOCH":"2022-10-30T18:51:46.298592","OBJECT_TYPE":"PAYLOAD","CLASSIFICATION_TYPE":"U","OBJECT_ID":"2021-038AZ","DECAY_DATE":null,"BSTAR":"0.00008397600000"},{"OBJECT_ID":"2021-038BA","DECAY_DATE":null,"BSTAR":"-0.00006854000000","SEMIMAJOR_AXIS":"6925.385","EPOCH":"2022-10-30T19:44:51.833760","OBJECT_TYPE":"PAYLOAD","CLASSIFICATION_TYPE":"U","NORAD_CAT_ID":"48401","APOAPSIS":"548.074","MEAN_MOTION":"15.06388155","SITE":"AFETR","ELEMENT_SET_NO":"999","TIME_SYSTEM":"UTC","LAUNCH_DATE":"2021-05-04","REV_AT_EPOCH":"8253","OBJECT_NAME":"STARLINK-2571","RA_OF_ASC_NODE":"84.7664","FILE":"3637924","TLE_LINE2":"2 48401  53.0543  84.7664 0001190  92.2870 267.8256 15.06388155 82539","COUNTRY_CODE":"US","GP_ID":"216528823","TLE_LINE1":"1 48401U 21038BA  22303.82282215 -.00001302  00000-0 -68540-4 0  9996","EPHEMERIS_TYPE":"0","ARG_OF_PERICENTER":"92.2870","MEAN_ELEMENT_THEORY":"SGP4","PERIOD":"95.593","INCLINATION":"53.0543","MEAN_ANOMALY":"267.8256","CENTER_NAME":"EARTH","REF_FRAME":"TEME","ECCENTRICITY":"0.00011900","PERIAPSIS":"546.426","RCS_SIZE":"LARGE","MEAN_MOTION_DDOT":"0.0000000000000","MEAN_MOTION_DOT":"-0.00001302"},{"RA_OF_ASC_NODE":"85.8314","TLE_LINE1":"1 48402U 21038BB  22303.58227260 -.00004097  00000-0 -25614-3 0  9997","FILE":"3637924","TLE_LINE2":"2 48402  53.0560  85.8314 0001296  91.7345 268.3792 15.06425372 82502","COUNTRY_CODE":"US","GP_ID":"216529067","PERIOD":"95.591","MEAN_ANOMALY":"268.3792","INCLINATION":"53.0560","CENTER_NAME":"EARTH","ARG_OF_PERICENTER":"91.7345","EPHEMERIS_TYPE":"0","MEAN_ELEMENT_THEORY":"SGP4","ECCENTRICITY":"0.00012960","PERIAPSIS":"546.238","RCS_SIZE":"LARGE","MEAN_MOTION_DOT":"-0.00004097","MEAN_MOTION_DDOT":"0.0000000000000","REF_FRAME":"TEME","BSTAR":"-0.00025614000000","OBJECT_ID":"2021-038BB","DECAY_DATE":null,"OBJECT_TYPE":"PAYLOAD","CLASSIFICATION_TYPE":"U","SEMIMAJOR_AXIS":"6925.271","EPOCH":"2022-10-30T13:58:28.352640","APOAPSIS":"548.033","NORAD_CAT_ID":"48402","REV_AT_EPOCH":"8250","OBJECT_NAME":"STARLINK-2560","SITE":"AFETR","MEAN_MOTION":"15.06425372","ELEMENT_SET_NO":"999","TIME_SYSTEM":"UTC","LAUNCH_DATE":"2021-05-04"},{"ECCENTRICITY":"0.00013060","PERIAPSIS":"546.308","RCS_SIZE":"LARGE","MEAN_MOTION_DDOT":"0.0000000000000","MEAN_MOTION_DOT":"-0.00000180","REF_FRAME":"TEME","INCLINATION":"53.0538","PERIOD":"95.592","MEAN_ANOMALY":"246.7508","CENTER_NAME":"EARTH","ARG_OF_PERICENTER":"113.3618","EPHEMERIS_TYPE":"0","MEAN_ELEMENT_THEORY":"SGP4","TLE_LINE1":"1 48403U 21038BC  22303.84492618 -.00000180  00000-0  68252-5 0  9993","FILE":"3637924","COUNTRY_CODE":"US","TLE_LINE2":"2 48403  53.0538  84.6525 0001306 113.3618 246.7508 15.06400455 82549","GP_ID":"216527827","RA_OF_ASC_NODE":"84.6525","REV_AT_EPOCH":"8254","OBJECT_NAME":"STARLINK-2561","SITE":"AFETR","MEAN_MOTION":"15.06400455","ELEMENT_SET_NO":"999","TIME_SYSTEM":"UTC","LAUNCH_DATE":"2021-05-04","APOAPSIS":"548.117","NORAD_CAT_ID":"48403","OBJECT_TYPE":"PAYLOAD","CLASSIFICATION_TYPE":"U","SEMIMAJOR_AXIS":"6925.347","EPOCH":"2022-10-30T20:16:41.621952","BSTAR":"0.00000682520000","OBJECT_ID":"2021-038BC","DECAY_DATE":null},{"NORAD_CAT_ID":"48404","APOAPSIS":"547.777","SITE":"AFETR","ELEMENT_SET_NO":"999","MEAN_MOTION":"15.06418043","TIME_SYSTEM":"UTC","LAUNCH_DATE":"2021-05-04","REV_AT_EPOCH":"8253","OBJECT_NAME":"STARLINK-2593","OBJECT_ID":"2021-038BD","DECAY_DATE":null,"BSTAR":"0.00037362000000","SEMIMAJOR_AXIS":"6925.293","EPOCH":"2022-10-30T18:35:49.382304","OBJECT_TYPE":"PAYLOAD","CLASSIFICATION_TYPE":"U","EPHEMERIS_TYPE":"0","ARG_OF_PERICENTER":"212.9995","MEAN_ELEMENT_THEORY":"SGP4","PERIOD":"95.591","INCLINATION":"53.0581","MEAN_ANOMALY":"147.0939","CENTER_NAME":"EARTH","REF_FRAME":"TEME","ECCENTRICITY":"0.00008930","PERIAPSIS":"546.540","RCS_SIZE":"LARGE","MEAN_MOTION_DDOT":"0.0000000000000","MEAN_MOTION_DOT":"0.00005291","RA_OF_ASC_NODE":"84.9729","FILE":"3637924","COUNTRY_CODE":"US","TLE_LINE2":"2 48404  53.0581  84.9729 0000893 212.9995 147.0939 15.06418043 82533","GP_ID":"216527578","TLE_LINE1":"1 48404U 21038BD  22303.77487711  .00005291  00000-0  37362-3 0  9997"},{"RA_OF_ASC_NODE":"84.6706","TLE_LINE1":"1 48405U 21038BE  22303.83755347 -.00000636  00000-0 -23839-4 0  9993","GP_ID":"216528324","TLE_LINE2":"2 48405  53.0549  84.6706 0001154  85.3422 274.7699 15.06401440 82543","COUNTRY_CODE":"US","FILE":"3637924","CENTER_NAME":"EARTH","PERIOD":"95.592","INCLINATION":"53.0549","MEAN_ANOMALY":"274.7699","MEAN_ELEMENT_THEORY":"SGP4","EPHEMERIS_TYPE":"0","ARG_OF_PERICENTER":"85.3422","MEAN_MOTION_DDOT":"0.0000000000000","MEAN_MOTION_DOT":"-0.00000636","RCS_SIZE":"LARGE","PERIAPSIS":"546.410","ECCENTRICITY":"0.00011540","REF_FRAME":"TEME","BSTAR":"-0.00002383900000","DECAY_DATE":null,"OBJECT_ID":"2021-038BE","CLASSIFICATION_TYPE":"U","OBJECT_TYPE":"PAYLOAD","EPOCH":"2022-10-30T20:06:04.619808","SEMIMAJOR_AXIS":"6925.344","APOAPSIS":"548.008","NORAD_CAT_ID":"48405","OBJECT_NAME":"STARLINK-2570","REV_AT_EPOCH":"8254","LAUNCH_DATE":"2021-05-04","TIME_SYSTEM":"UTC","SITE":"AFETR","ELEMENT_SET_NO":"999","MEAN_MOTION":"15.06401440"},{"REF_FRAME":"TEME","MEAN_MOTION_DOT":"-0.00000289","MEAN_MOTION_DDOT":"0.0000000000000","PERIAPSIS":"546.303","RCS_SIZE":"LARGE","ECCENTRICITY":"0.00013170","MEAN_ELEMENT_THEORY":"SGP4","ARG_OF_PERICENTER":"93.4595","EPHEMERIS_TYPE":"0","CENTER_NAME":"EARTH","INCLINATION":"53.0556","PERIOD":"95.592","MEAN_ANOMALY":"266.6544","GP_ID":"216528568","COUNTRY_CODE":"US","TLE_LINE2":"2 48406  53.0556  84.7123 0001317  93.4595 266.6544 15.06399382 82548","FILE":"3637924","TLE_LINE1":"1 48406U 21038BF  22303.83387231 -.00000289  00000-0 -53702-6 0  9995","RA_OF_ASC_NODE":"84.7123","LAUNCH_DATE":"2021-05-04","TIME_SYSTEM":"UTC","ELEMENT_SET_NO":"999","SITE":"AFETR","MEAN_MOTION":"15.06399382","OBJECT_NAME":"STARLINK-2568","REV_AT_EPOCH":"8254","NORAD_CAT_ID":"48406","APOAPSIS":"548.128","EPOCH":"2022-10-30T20:00:46.567584","SEMIMAJOR_AXIS":"6925.350","CLASSIFICATION_TYPE":"U","OBJECT_TYPE":"PAYLOAD","DECAY_DATE":null,"OBJECT_ID":"2021-038BF","BSTAR":"-0.00000053702000"}];
